NORAD_CAT_ID,OBJECT_NAME,OBJECT_TYPE,EPOCH,MEAN_MOTION,ECCENTRICITY,INCLINATION,RA_OF_ASC_NODE,ARG_OF_PERICENTER,MEAN_ANOMALY,BSTAR,MEAN_MOTION_DOT,MEAN_MOTION_DDOT,TLE_LINE0,TLE_LINE1,TLE_LINE2,SEMIMAJOR_AXIS,PERIOD,APOGEE,PERIGEE,DECAYED
53803.0,STARLINK-4727,PAYLOAD,2023-12-31 21:13:21,15.08837103,0.0001436,53.2168,235.1408,100.6466,259.4688,3.5606e-05,2.79e-06,0.0,0 STARLINK-4727,1 53803U 22111AG  23365.88427413  .00000279  00000-0  35606-4 0  9994,2 53803  53.2168 235.1408 0001436 100.6466 259.4688 15.08837103 73431,6917.889,95.438,540.748,538.761,0.0
53803.0,STARLINK-4727,PAYLOAD,2023-12-31 22:48:44,15.08837546,0.0001398,53.2169,234.8436,93.1168,266.9984,3.5387e-05,2.75e-06,0.0,0 STARLINK-4727,1 53803U 22111AG  23365.95051427  .00000275  00000-0  35387-4 0  9992,2 53803  53.2169 234.8436 0001398  93.1168 266.9984 15.08837546 72635,6917.888,95.438,540.72,538.786,0.0
53803.0,STARLINK-4727,PAYLOAD,2024-01-01 22:39:30,15.08845771,0.0001303,53.216,230.387,89.7167,270.3975,0.00014246,1.98e-05,0.0,0 STARLINK-4727,1 53803U 22111AG  24001.94410693  .00001980  00000-0  14246-3 0  9997,2 53803  53.2160 230.3870 0001303  89.7167 270.3975 15.08845771 73599,6917.863,95.437,540.629,538.826,0.0
53803.0,STARLINK-4727,PAYLOAD,2024-01-02 00:14:53,15.08846555,0.0001306,53.216,230.0895,90.3743,269.7399,0.00014846,2.076e-05,0.0,0 STARLINK-4727,1 53803U 22111AG  24002.01034624  .00002076  00000-0  14846-3 0  9995,2 53803  53.2160 230.0895 0001306  90.3743 269.7399 15.08846555 72798,6917.86,95.437,540.629,538.822,0.0
53803.0,STARLINK-4727,PAYLOAD,2024-01-02 19:19:32,15.0884033,0.000133,53.216,226.5211,87.3917,272.7228,6.7467e-05,7.86e-06,0.0,0 STARLINK-4727,1 53803U 22111AG  24002.80523208  .00000786  00000-0  67467-4 0  9997,2 53803  53.2160 226.5211 0001330  87.3917 272.7228 15.08840330 72910,6917.879,95.438,540.664,538.824,0.0
53803.0,STARLINK-4727,PAYLOAD,2024-01-02 22:30:18,15.08843111,0.0001376,53.216,225.9265,84.9627,275.1522,8.6485e-05,1.089e-05,0.0,0 STARLINK-4727,1 53803U 22111AG  24002.93770961  .00001089  00000-0  86485-4 0  9999,2 53803  53.2160 225.9265 0001376  84.9627 275.1522 15.08843111 73749,6917.871,95.437,540.688,538.784,0.0
53803.0,STARLINK-4727,PAYLOAD,2024-01-03 20:45:42,15.08841914,0.0001423,53.2155,221.7643,82.51,277.6054,-1.3841e-05,-5.08e-06,0.0,0 STARLINK-4727,1 53803U 22111AG  24003.86507231 -.00000508  00000-0 -13841-4 0  9993,2 53803  53.2155 221.7643 0001423  82.5100 277.6054 15.08841914 73881,6917.875,95.437,540.724,538.755,0.0
53803.0,STARLINK-4727,PAYLOAD,2024-01-03 23:56:28,15.08843898,0.000142,53.2157,221.1685,84.8344,275.281,-6.5828e-07,-2.98e-06,0.0,0 STARLINK-4727,1 53803U 22111AG  24003.99755011 -.00000298  00000-0 -65828-6 0  9998,2 53803  53.2157 221.1685 0001420  84.8344 275.2810 15.08843898 73095,6917.868,95.437,540.716,538.751,0.0
53803.0,STARLINK-4727,PAYLOAD,2024-01-04 20:36:29,15.08838392,0.0001476,53.2159,217.301,87.989,272.1271,1.4618e-05,-5.5e-07,0.0,0 STARLINK-4727,1 53803U 22111AG  24004.85867297 -.00000055  00000-0  14618-4 0  9993,2 53803  53.2159 217.3010 0001476  87.9890 272.1271 15.08838392 74032,6917.885,95.438,540.771,538.729,0.0
53803.0,STARLINK-4727,PAYLOAD,2024-01-04 23:47:15,15.08837727,0.0001484,53.2158,216.7068,86.9903,273.1259,9.371e-06,-1.39e-06,0.0,0 STARLINK-4727,1 53803U 22111AG  24004.99115374 -.00000139  00000-0  93710-5 0  9994,2 53803  53.2158 216.7068 0001484  86.9903 273.1259 15.08837727 73240,6917.887,95.438,540.779,538.726,0.0
53803.0,STARLINK-4727,PAYLOAD,2024-01-05 20:27:16,15.0884062,0.0001504,53.2163,212.8414,96.3934,263.723,6.7939e-05,7.93e-06,0.0,0 STARLINK-4727,1 53803U 22111AG  24005.85227048  .00000793  00000-0  67939-4 0  9990,2 53803  53.2163 212.8414 0001504  96.3934 263.7230 15.08840620 74184,6917.878,95.438,540.784,538.703,0.0
53803.0,STARLINK-4727,PAYLOAD,2024-01-05 23:38:02,15.08840465,0.0001505,53.2162,212.2469,95.123,264.9934,6.3408e-05,7.21e-06,0.0,0 STARLINK-4727,1 53803U 22111AG  24005.98475080  .00000721  00000-0  63408-4 0  9993,2 53803  53.2162 212.2469 0001505  95.1230 264.9934 15.08840465 74208,6917.879,95.438,540.785,538.703,0.0
53803.0,STARLINK-4727,PAYLOAD,2024-01-06 18:42:40,15.08837169,0.0001502,53.2162,208.6785,95.65,264.4663,4.0766e-05,3.61e-06,0.0,0 STARLINK-4727,1 53803U 22111AG  24006.77963468  .00000361  00000-0  40766-4 0  9995,2 53803  53.2162 208.6785 0001502  95.6500 264.4663 15.08837169 73514,6917.889,95.438,540.793,538.715,0.0
53803.0,STARLINK-4727,PAYLOAD,2024-01-07 12:11:55,15.08838481,0.0001532,53.2163,205.407,94.8773,265.2394,1.7116e-05,-1.6e-07,0.0,0 STARLINK-4727,1 53803U 22111AG  24007.50827563 -.00000016  00000-0  17116-4 0  9993,2 53803  53.2163 205.4070 0001532  94.8773 265.2394 15.08838481 74433,6917.885,95.438,540.81,538.69,0.0
53803.0,STARLINK-4727,PAYLOAD,2024-01-07 18:33:27,15.08839072,0.0001554,53.2165,204.2179,100.4932,259.6235,3.1823e-05,2.18e-06,0.0,0 STARLINK-4727,1 53803U 22111AG  24007.77323476  .00000218  00000-0  31823-4 0  9990,2 53803  53.2165 204.2179 0001554 100.4932 259.6235 15.08839072 74479,6917.883,95.438,540.823,538.673,0.0
53803.0,STARLINK-4727,PAYLOAD,2024-01-08 12:02:42,15.08837013,0.000143,53.216,200.9476,93.4896,266.626,4.1891e-05,3.79e-06,0.0,0 STARLINK-4727,1 53803U 22111AG  24008.50187684  .00000379  00000-0  41891-4 0  9995,2 53803  53.2160 200.9476 0001430  93.4896 266.6260 15.08837013 73771,6917.89,95.438,540.744,538.765,0.0
53803.0,STARLINK-4727,PAYLOAD,2024-01-08 19:59:38,15.08836395,0.0001386,53.2158,199.4603,83.1878,276.9272,3.4731e-05,2.65e-06,0.0,0 STARLINK-4727,1 53803U 22111AG  24008.83307875  .00000265  00000-0  34731-4 0  9996,2 53803  53.2158 199.4603 0001386  83.1878 276.9272 15.08836395 74633,6917.891,95.438,540.715,538.798,0.0
53803.0,STARLINK-4727,PAYLOAD,2024-01-09 19:50:24,15.08840458,0.0001372,53.2159,194.9996,82.8447,277.2702,5.9015e-05,6.51e-06,0.0,0 STARLINK-4727,1 53803U 22111AG  24009.82667709  .00000651  00000-0  59015-4 0  9992,2 53803  53.2159 194.9996 0001372  82.8447 277.2702 15.08840458 73975,6917.879,95.438,540.693,538.795,0.0
53803.0,STARLINK-4727,PAYLOAD,2024-01-09 21:25:47,15.08841494,0.0001372,53.2158,194.7021,85.804,274.3109,6.6089e-05,7.64e-06,0.0,0 STARLINK-4727,1 53803U 22111AG  24009.89291601  .00000764  00000-0  66089-4 0  9997,2 53803  53.2158 194.7021 0001372  85.8040 274.3109 15.08841494 74794,6917.876,95.437,540.69,538.792,0.0
53803.0,STARLINK-4727,PAYLOAD,2024-01-10 11:44:16,15.0883706,0.0001371,53.2156,192.0256,90.0681,270.0468,4.8419e-05,4.83e-06,0.0,0 STARLINK-4727,1 53803U 22111AG  24010.48907971  .00000483  00000-0  48419-4 0  9993,2 53803  53.2156 192.0256 0001371  90.0681 270.0468 15.08837060 74886,6917.889,95.438,540.703,538.806,0.0
53803.0,STARLINK-4727,PAYLOAD,2024-01-11 11:35:03,15.08844668,0.0001335,53.2155,187.5649,90.3415,269.773,6.5287e-05,7.51e-06,0.0,0 STARLINK-4727,1 53803U 22111AG  24011.48267455  .00000751  00000-0  65287-4 0  9990,2 53803  53.2155 187.5649 0001335  90.3415 269.7730 15.08844668 74225,6917.866,95.437,540.655,538.808,0.0
53803.0,STARLINK-4727,PAYLOAD,2024-01-11 17:56:35,15.08848174,0.0001338,53.2155,186.3758,88.5456,271.569,9.1956e-05,1.176e-05,0.0,0 STARLINK-4727,1 53803U 22111AG  24011.74763099  .00001176  00000-0  91956-4 0  9998,2 53803  53.2155 186.3758 0001338  88.5456 271.5690 15.08848174 75076,6917.855,95.437,540.646,538.795,0.0
53803.0,STARLINK-4727,PAYLOAD,2024-01-12 11:25:50,15.08838812,0.0001474,53.2153,183.1058,73.0929,287.0225,3.1368e-05,2.11e-06,0.0,0 STARLINK-4727,1 53803U 22111AG  24012.47627944  .00000211  00000-0  31368-4 0  9997,2 53803  53.2153 183.1058 0001474  73.0929 287.0225 15.08838812 74373,6917.884,95.438,540.769,538.729,0.0
53803.0,STARLINK-4727,PAYLOAD,2024-01-12 14:36:36,15.08837621,0.0001421,53.2154,182.5107,76.709,283.4061,1.638e-05,-2.7e-07,0.0,0 STARLINK-4727,1 53803U 22111AG  24012.60876039 -.00000027  00000-0  16380-4 0  9996,2 53803  53.2154 182.5107 0001421  76.7090 283.4061 15.08837621 75201,6917.888,95.438,540.736,538.77,0.0
53803.0,STARLINK-4727,PAYLOAD,2024-01-12 17:47:23,15.08836825,0.0001399,53.2154,181.916,77.8731,282.2418,7.6217e-06,-1.67e-06,0.0,0 STARLINK-4727,1 53803U 22111AG  24012.74124109 -.00000167  00000-0  76217-5 0  9996,2 53803  53.2154 181.9160 0001399  77.8731 282.2418 15.08836825 75221,6917.89,95.438,540.723,538.787,0.0
53803.0,STARLINK-4727,PAYLOAD,2024-01-13 14:27:23,15.08841174,0.0001353,53.2154,178.05,84.4671,275.6475,6.8815e-06,-1.78e-06,0.0,0 STARLINK-4727,1 53803U 22111AG  24013.60235869 -.00000178  00000-0  68815-5 0  9995,2 53803  53.2154 178.0500 0001353  84.4671 275.6475 15.08841174 75359,6917.877,95.437,540.678,538.806,0.0
53803.0,STARLINK-4727,PAYLOAD,2024-01-13 17:38:09,15.08842692,0.0001343,53.216,177.4559,88.7328,271.3818,1.9999e-05,3e-07,0.0,0 STARLINK-4727,1 53803U 22111AG  24013.73483692  .00000030  00000-0  19999-4 0  9992,2 53803  53.2160 177.4559 0001343  88.7328 271.3818 15.08842692 74560,6917.872,95.437,540.666,538.808,0.0
53803.0,STARLINK-4727,PAYLOAD,2024-01-14 11:07:24,15.08834609,0.0001386,53.2163,174.1813,96.4933,263.6217,3.7052e-05,3.02e-06,0.0,0 STARLINK-4727,1 53803U 22111AG  24014.46348209  .00000302  00000-0  37052-4 0  9999,2 53803  53.2163 174.1813 0001386  96.4933 263.6217 15.08834609 74673,6917.897,95.438,540.721,538.803,0.0
53803.0,STARLINK-4727,PAYLOAD,2024-01-14 14:18:11,15.08812215,0.0001576,53.2168,173.5857,96.1324,263.9847,0.00040793,6.205e-05,0.0,0 STARLINK-4727,1 53803U 22111AG  24014.59596492  .00006205  00000-0  40793-3 0  9995,2 53803  53.2168 173.5857 0001576  96.1324 263.9847 15.08812215 75505,6917.965,95.439,540.921,538.74,0.0
53803.0,STARLINK-4727,PAYLOAD,2024-01-14 17:28:57,15.08839556,0.0001352,53.2163,172.9919,91.8926,268.2221,7.6096e-05,9.23e-06,0.0,0 STARLINK-4727,1 53803U 22111AG  24014.72843884  .00000923  00000-0  76096-4 0  9997,2 53803  53.2163 172.9919 0001352  91.8926 268.2221 15.08839556 75527,6917.882,95.438,540.682,538.811,0.0
